[{"OBJECT_NAME":"STARLINK-31892","OBJECT_ID":"2024-097U","EPOCH":"2026-03-09T13:19:05.058624","MEAN_MOTION":15.27575099,"ECCENTRICITY":0.00013189,"INCLINATION":43.0015,"RA_OF_ASC_NODE":275.3387,"ARG_OF_PERICENTER":275.6883,"MEAN_ANOMALY":84.3818,"EPHEMERIS_TYPE":0,"CLASSIFICATION_TYPE":"U","NORAD_CAT_ID":59853,"ELEMENT_SET_NO":999,"REV_AT_EPOCH":10189,"BSTAR":-2.4375818e-5,"MEAN_MOTION_DOT":-9.33e-6,"MEAN_MOTION_DDOT":0},{"OBJECT_NAME":"FLOCK 4G-3","OBJECT_ID":"2025-009AG","EPOCH":"2026-03-09T19:14:30.392160","MEAN_MOTION":15.2717931,"ECCENTRICITY":0.00013196,"INCLINATION":97.4062,"RA_OF_ASC_NODE":151.4068,"ARG_OF_PERICENTER":293.2042,"MEAN_ANOMALY":66.9058,"EPHEMERIS_TYPE":0,"CLASSIFICATION_TYPE":"U","NORAD_CAT_ID":62639,"ELEMENT_SET_NO":999,"REV_AT_EPOCH":6372,"BSTAR":0.0004338875,"MEAN_MOTION_DOT":0.00011494,"MEAN_MOTION_DDOT":0}]
